CCSDS_OMM_VERS = 2.0
CREATION_DATE  = 
ORIGINATOR     = 

OBJECT_NAME    = SZ-21 MODULE
OBJECT_ID      = 2025-246C
CENTER_NAME    = EARTH
REF_FRAME      = TEME
TIME_SYSTEM    = UTC
MEAN_ELEMENT_THEORY = SGP/SGP4

EPOCH          = 2025-11-24T19:50:46.827168
MEAN_MOTION    = 15.61268541
ECCENTRICITY   = .00047591
INCLINATION    = 41.4756
RA_OF_ASC_NODE = 125.2156
ARG_OF_PERICENTER = 141.8605
MEAN_ANOMALY   = 218.2571

EPHEMERIS_TYPE = 0
CLASSIFICATION_TYPE = U
NORAD_CAT_ID   = 66515
ELEMENT_SET_NO = 999
REV_AT_EPOCH   = 164
BSTAR          = .34979622E-3
MEAN_MOTION_DOT = .30337E-3
MEAN_MOTION_DDOT = 0

