SZ-21 MODULE            
1 66515U 25246C   25328.82693087  .00030337  00000+0  34980-3 0  9997
2 66515  41.4756 125.2156 0004759 141.8605 218.2571 15.61268541  1640
